{"fetched_at":"2026-07-24T07:06:33.741Z","source":"https://celestrak.org/NORAD/elements/gp.php?NAME=HULIANWANG&FORMAT=JSON","constellation":"guowang","records":[{"OBJECT_NAME":"HULIANWANG DIGUI-44","OBJECT_ID":"2025-162E","EPOCH":"2026-07-23T19:41:05.907264","CLASSIFICATION_TYPE":"U","MEAN_MOTION":13.29319087,"ECCENTRICITY":0.0001431,"INCLINATION":50.001,"RA_OF_ASC_NODE":134.3037,"ARG_OF_PERICENTER":1.1237,"MEAN_ANOMALY":358.9638,"EPHEMERIS_TYPE":0,"NORAD_CAT_ID":65047,"ELEMENT_SET_NO":999,"REV_AT_EPOCH":4824,"BSTAR":0.000066111,"MEAN_MOTION_DOT":-9.3e-7,"MEAN_MOTION_DDOT":0},{"OBJECT_NAME":"HULIANWANG DIGUI-45","OBJECT_ID":"2025-162F","EPOCH":"2026-07-23T19:29:10.364928","CLASSIFICATION_TYPE":"U","MEAN_MOTION":13.293277,"ECCENTRICITY":0.0000273,"INCLINATION":50.004,"RA_OF_ASC_NODE":134.346,"ARG_OF_PERICENTER":13.8052,"MEAN_ANOMALY":346.2827,"EPHEMERIS_TYPE":0,"NORAD_CAT_ID":65048,"ELEMENT_SET_NO":999,"REV_AT_EPOCH":4823,"BSTAR":0.000071236,"MEAN_MOTION_DOT":-9.1e-7,"MEAN_MOTION_DDOT":0},{"OBJECT_NAME":"HULIANWANG DIGUI-46","OBJECT_ID":"2025-162G","EPOCH":"2026-07-23T21:05:26.273184","CLASSIFICATION_TYPE":"U","MEAN_MOTION":13.29327498,"ECCENTRICITY":0.0000229,"INCLINATION":50.0059,"RA_OF_ASC_NODE":134.0842,"ARG_OF_PERICENTER":11.7885,"MEAN_ANOMALY":348.2992,"EPHEMERIS_TYPE":0,"NORAD_CAT_ID":65049,"ELEMENT_SET_NO":999,"REV_AT_EPOCH":4824,"BSTAR":0.000081367,"MEAN_MOTION_DOT":-8.6e-7,"MEAN_MOTION_DDOT":0},{"OBJECT_NAME":"HULIANWANG DIGUI-47","OBJECT_ID":"2025-162H","EPOCH":"2026-07-23T20:53:24.777888","CLASSIFICATION_TYPE":"U","MEAN_MOTION":13.29327067,"ECCENTRICITY":0.0000226,"INCLINATION":50.0023,"RA_OF_ASC_NODE":133.9412,"ARG_OF_PERICENTER":3.8203,"MEAN_ANOMALY":356.2671,"EPHEMERIS_TYPE":0,"NORAD_CAT_ID":65050,"ELEMENT_SET_NO":999,"REV_AT_EPOCH":4824,"BSTAR":0.000080529,"MEAN_MOTION_DOT":-8.7e-7,"MEAN_MOTION_DDOT":0},{"OBJECT_NAME":"HULIANWANG DIGUI-48","OBJECT_ID":"2025-162J","EPOCH":"2026-07-23T20:41:22.276896","CLASSIFICATION_TYPE":"U","MEAN_MOTION":13.29327756,"ECCENTRICITY":0.0000267,"INCLINATION":50.0033,"RA_OF_ASC_NODE":133.9256,"ARG_OF_PERICENTER":9.0603,"MEAN_ANOMALY":351.0273,"EPHEMERIS_TYPE":0,"NORAD_CAT_ID":65051,"ELEMENT_SET_NO":999,"REV_AT_EPOCH":4824,"BSTAR":0.000075359,"MEAN_MOTION_DOT":-8.9e-7,"MEAN_MOTION_DDOT":0},{"OBJECT_NAME":"HULIANWANG DIGUI-49","OBJECT_ID":"2025-168A","EPOCH":"2026-07-23T20:22:42.197664","CLASSIFICATION_TYPE":"U","MEAN_MOTION":13.29322535,"ECCENTRICITY":0.0008229,"INCLINATION":50.0008,"RA_OF_ASC_NODE":194.4748,"ARG_OF_PERICENTER":217.3235,"MEAN_ANOMALY":142.7066,"EPHEMERIS_TYPE":0,"NORAD_CAT_ID":65106,"ELEMENT_SET_NO":999,"REV_AT_EPOCH":4756,"BSTAR":0.00010983,"MEAN_MOTION_DOT":-7.3e-7,"MEAN_MOTION_DDOT":0},{"OBJECT_NAME":"HULIANWANG DIGUI-50","OBJECT_ID":"2025-168B","EPOCH":"2026-07-23T20:10:36.005664","CLASSIFICATION_TYPE":"U","MEAN_MOTION":13.29322236,"ECCENTRICITY":0.0008805,"INCLINATION":49.9978,"RA_OF_ASC_NODE":194.3429,"ARG_OF_PERICENTER":203.0066,"MEAN_ANOMALY":157.0413,"EPHEMERIS_TYPE":0,"NORAD_CAT_ID":65107,"ELEMENT_SET_NO":999,"REV_AT_EPOCH":4756,"BSTAR":0.00010229,"MEAN_MOTION_DOT":-7.6e-7,"MEAN_MOTION_DDOT":0},{"OBJECT_NAME":"HULIANWANG DIGUI-51","OBJECT_ID":"2025-168C","EPOCH":"2026-07-23T19:58:02.215776","CLASSIFICATION_TYPE":"U","MEAN_MOTION":13.29325357,"ECCENTRICITY":0.0010107,"INCLINATION":50.0015,"RA_OF_ASC_NODE":194.4054,"ARG_OF_PERICENTER":201.9433,"MEAN_ANOMALY":158.1008,"EPHEMERIS_TYPE":0,"NORAD_CAT_ID":65108,"ELEMENT_SET_NO":999,"REV_AT_EPOCH":4756,"BSTAR":0.000092117,"MEAN_MOTION_DOT":-8.1e-7,"MEAN_MOTION_DDOT":0},{"OBJECT_NAME":"HULIANWANG DIGUI-52","OBJECT_ID":"2025-168D","EPOCH":"2026-07-23T19:46:23.664864","CLASSIFICATION_TYPE":"U","MEAN_MOTION":13.29323237,"ECCENTRICITY":0.0010351,"INCLINATION":50.0009,"RA_OF_ASC_NODE":194.3392,"ARG_OF_PERICENTER":214.6142,"MEAN_ANOMALY":145.4057,"EPHEMERIS_TYPE":0,"NORAD_CAT_ID":65109,"ELEMENT_SET_NO":999,"REV_AT_EPOCH":4756,"BSTAR":0.00010108,"MEAN_MOTION_DOT":-7.7e-7,"MEAN_MOTION_DDOT":0},{"OBJECT_NAME":"HULIANWANG DIGUI-53","OBJECT_ID":"2025-168E","EPOCH":"2026-07-23T19:34:04.973376","CLASSIFICATION_TYPE":"U","MEAN_MOTION":13.29326652,"ECCENTRICITY":0.0008842,"INCLINATION":50.0017,"RA_OF_ASC_NODE":194.3248,"ARG_OF_PERICENTER":205.6052,"MEAN_ANOMALY":154.4383,"EPHEMERIS_TYPE":0,"NORAD_CAT_ID":65110,"ELEMENT_SET_NO":999,"REV_AT_EPOCH":4756,"BSTAR":0.00010349,"MEAN_MOTION_DOT":-7.6e-7,"MEAN_MOTION_DDOT":0},{"OBJECT_NAME":"HULIANWANG DIGUI-54","OBJECT_ID":"2025-168F","EPOCH":"2026-07-23T20:46:31.867104","CLASSIFICATION_TYPE":"U","MEAN_MOTION":13.29326897,"ECCENTRICITY":0.0010658,"INCLINATION":49.9967,"RA_OF_ASC_NODE":193.7833,"ARG_OF_PERICENTER":210.0315,"MEAN_ANOMALY":149.9947,"EPHEMERIS_TYPE":0,"NORAD_CAT_ID":65111,"ELEMENT_SET_NO":999,"REV_AT_EPOCH":4757,"BSTAR":0.00014237,"MEAN_MOTION_DOT":-5.8e-7,"MEAN_MOTION_DDOT":0},{"OBJECT_NAME":"HULIANWANG DIGUI-55","OBJECT_ID":"2025-168G","EPOCH":"2026-07-23T19:22:13.147104","CLASSIFICATION_TYPE":"U","MEAN_MOTION":13.29323102,"ECCENTRICITY":0.0011731,"INCLINATION":49.9973,"RA_OF_ASC_NODE":194.1531,"ARG_OF_PERICENTER":205.8239,"MEAN_ANOMALY":154.2048,"EPHEMERIS_TYPE":0,"NORAD_CAT_ID":65112,"ELEMENT_SET_NO":999,"REV_AT_EPOCH":4756,"BSTAR":0.00011874,"MEAN_MOTION_DOT":-6.9e-7,"MEAN_MOTION_DDOT":0},{"OBJECT_NAME":"HULIANWANG DIGUI-56","OBJECT_ID":"2025-168H","EPOCH":"2026-07-23T19:10:17.690304","CLASSIFICATION_TYPE":"U","MEAN_MOTION":13.29322551,"ECCENTRICITY":0.0011914,"INCLINATION":49.9964,"RA_OF_ASC_NODE":194.0858,"ARG_OF_PERICENTER":225.7765,"MEAN_ANOMALY":134.2129,"EPHEMERIS_TYPE":0,"NORAD_CAT_ID":65113,"ELEMENT_SET_NO":999,"REV_AT_EPOCH":4756,"BSTAR":0.00011762,"MEAN_MOTION_DOT":-6.9e-7,"MEAN_MOTION_DDOT":0},{"OBJECT_NAME":"HULIANWANG DIGUI-57","OBJECT_ID":"2025-168J","EPOCH":"2026-07-23T20:34:32.853216","CLASSIFICATION_TYPE":"U","MEAN_MOTION":13.29326868,"ECCENTRICITY":0.000951,"INCLINATION":49.9993,"RA_OF_ASC_NODE":193.8144,"ARG_OF_PERICENTER":218.2979,"MEAN_ANOMALY":141.7218,"EPHEMERIS_TYPE":0,"NORAD_CAT_ID":65114,"ELEMENT_SET_NO":999,"REV_AT_EPOCH":4758,"BSTAR":0.00012803,"MEAN_MOTION_DOT":-6.5e-7,"MEAN_MOTION_DDOT":0},{"OBJECT_NAME":"HULIANWANG DIGUI-58","OBJECT_ID":"2025-174A","EPOCH":"2026-07-23T19:57:55.461888","CLASSIFICATION_TYPE":"U","MEAN_MOTION":13.24407897,"ECCENTRICITY":0.0001876,"INCLINATION":86.4938,"RA_OF_ASC_NODE":239.6374,"ARG_OF_PERICENTER":100.8965,"MEAN_ANOMALY":259.238,"EPHEMERIS_TYPE":0,"NORAD_CAT_ID":65164,"ELEMENT_SET_NO":999,"REV_AT_EPOCH":4564,"BSTAR":0.000091795,"MEAN_MOTION_DOT":5.4e-7,"MEAN_MOTION_DDOT":0},{"OBJECT_NAME":"HULIANWANG DIGUI-59","OBJECT_ID":"2025-174B","EPOCH":"2026-07-23T20:08:51.420192","CLASSIFICATION_TYPE":"U","MEAN_MOTION":13.24407974,"ECCENTRICITY":0.0001955,"INCLINATION":86.4899,"RA_OF_ASC_NODE":239.5116,"ARG_OF_PERICENTER":99.0628,"MEAN_ANOMALY":261.0728,"EPHEMERIS_TYPE":0,"NORAD_CAT_ID":65165,"ELEMENT_SET_NO":999,"REV_AT_EPOCH":4564,"BSTAR":0.000066866,"MEAN_MOTION_DOT":4.3e-7,"MEAN_MOTION_DDOT":0}]}
