HULIANWANG DIGUI-44     
1 65047U 25162E   26204.82020726 -.00000093  00000+0  66111-4 0  9990
2 65047  50.0010 134.3037 0001431   1.1237 358.9638 13.29319087 48247
HULIANWANG DIGUI-45     
1 65048U 25162F   26204.81192552 -.00000091  00000+0  71236-4 0  9999
2 65048  50.0040 134.3460 0000273  13.8052 346.2827 13.29327700 48239
HULIANWANG DIGUI-46     
1 65049U 25162G   26204.87877631 -.00000086  00000+0  81367-4 0  9994
2 65049  50.0059 134.0842 0000229  11.7885 348.2992 13.29327498 48243
HULIANWANG DIGUI-47     
1 65050U 25162H   26204.87042567 -.00000087  00000+0  80529-4 0  9998
2 65050  50.0023 133.9412 0000226   3.8203 356.2671 13.29327067 48245
HULIANWANG DIGUI-48     
1 65051U 25162J   26204.86206339 -.00000089  00000+0  75359-4 0  9994
2 65051  50.0033 133.9256 0000267   9.0603 351.0273 13.29327756 48246
HULIANWANG DIGUI-49     
1 65106U 25168A   26204.84909951 -.00000073  00000+0  10983-3 0  9993
2 65106  50.0008 194.4748 0008229 217.3235 142.7066 13.29322535 47567
HULIANWANG DIGUI-50     
1 65107U 25168B   26204.84069451 -.00000076  00000+0  10229-3 0  9992
2 65107  49.9978 194.3429 0008805 203.0066 157.0413 13.29322236 47563
HULIANWANG DIGUI-51     
1 65108U 25168C   26204.83197009 -.00000081  00000+0  92117-4 0  9996
2 65108  50.0015 194.4054 0010107 201.9433 158.1008 13.29325357 47566
HULIANWANG DIGUI-52     
1 65109U 25168D   26204.82388501 -.00000077  00000+0  10108-3 0  9999
2 65109  50.0009 194.3392 0010351 214.6142 145.4057 13.29323237 47561
HULIANWANG DIGUI-53     
1 65110U 25168E   26204.81533534 -.00000076  00000+0  10349-3 0  9994
2 65110  50.0017 194.3248 0008842 205.6052 154.4383 13.29326652 47560
HULIANWANG DIGUI-54     
1 65111U 25168F   26204.86564661 -.00000058  00000+0  14237-3 0  9995
2 65111  49.9967 193.7833 0010658 210.0315 149.9947 13.29326897 47572
HULIANWANG DIGUI-55     
1 65112U 25168G   26204.80709661 -.00000069  00000+0  11874-3 0  9997
2 65112  49.9973 194.1531 0011731 205.8239 154.2048 13.29323102 47566
HULIANWANG DIGUI-56     
1 65113U 25168H   26204.79881586 -.00000069  00000+0  11762-3 0  9999
2 65113  49.9964 194.0858 0011914 225.7765 134.2129 13.29322551 47561
HULIANWANG DIGUI-57     
1 65114U 25168J   26204.85732469 -.00000065  00000+0  12803-3 0  9995
2 65114  49.9993 193.8144 0009510 218.2979 141.7218 13.29326868 47581
HULIANWANG DIGUI-58     
1 65164U 25174A   26204.83189192  .00000054  00000+0  91795-4 0  9999
2 65164  86.4938 239.6374 0001876 100.8965 259.2380 13.24407897 45640
HULIANWANG DIGUI-59     
1 65165U 25174B   26204.83948403  .00000043  00000+0  66866-4 0  9997
2 65165  86.4899 239.5116 0001955  99.0628 261.0728 13.24407974 45646
